[{"OBJECT_NAME":"COSMOS 2414","OBJECT_ID":"2005-002A","EPOCH":"2026-03-09T14:50:05.809056","MEAN_MOTION":13.87915528,"ECCENTRICITY":0.0038721,"INCLINATION":82.9481,"RA_OF_ASC_NODE":118.9723,"ARG_OF_PERICENTER":252.5669,"MEAN_ANOMALY":107.1259,"EPHEMERIS_TYPE":0,"CLASSIFICATION_TYPE":"U","NORAD_CAT_ID":28521,"ELEMENT_SET_NO":999,"REV_AT_EPOCH":7000,"BSTAR":5.6357e-5,"MEAN_MOTION_DOT":8.3e-7,"MEAN_MOTION_DDOT":0},{"OBJECT_NAME":"DELTA 1 DEB","OBJECT_ID":"1975-052AN","EPOCH":"2026-03-09T15:09:22.795776","MEAN_MOTION":13.73708762,"ECCENTRICITY":0.0128362,"INCLINATION":99.5211,"RA_OF_ASC_NODE":308.1756,"ARG_OF_PERICENTER":4.646,"MEAN_ANOMALY":62.8095,"EPHEMERIS_TYPE":0,"CLASSIFICATION_TYPE":"U","NORAD_CAT_ID":21320,"ELEMENT_SET_NO":999,"REV_AT_EPOCH":74189,"BSTAR":0.00027143,"MEAN_MOTION_DOT":2.24e-6,"MEAN_MOTION_DDOT":0}]
